ONEWEB-0527             
1 54642U 22166A   25322.43192084 -.00000032  00000+0 -10821-3 0  9994
2 54642  87.9189 286.0394 0001915  82.1864 277.9487 13.21825855143699
ONEWEB-0528             
1 54643U 22166B   25322.43852347 -.00000013  00000+0 -63075-4 0  9999
2 54643  87.9189 286.0420 0001970  83.1045 277.0313 13.21826021143700
ONEWEB-0539             
1 54644U 22166C   25322.40065537  .00000004  00000+0 -21384-4 0  9990
2 54644  87.9181 286.0152 0001862  90.0776 270.0571 13.21828208143699
ONEWEB-0540             
1 54645U 22166D   25322.40738021  .00000110  00000+0  23406-3 0  9999
2 54645  87.9185 286.0523 0001851  89.7719 270.3627 13.21827979143684
ONEWEB-0542             
1 54646U 22166E   25322.41053890  .00000091  00000+0  18826-3 0  9993
2 54646  87.9184 286.0105 0001648  93.8919 266.2404 13.21828549143694
ONEWEB-0545             
1 54647U 22166F   25322.37597943  .00000069  00000+0  13450-3 0  9994
2 54647  87.9185 286.0376 0001773  97.7300 262.4035 13.21826968143659
ONEWEB-0580             
1 54648U 22166G   25322.42533054  .00000067  00000+0  13023-3 0  9998
2 54648  87.9185 286.0263 0001594  90.8400 269.2916 13.21828304143706
ONEWEB-0582             
1 54649U 22166H   25322.46812193  .00000015  00000+0  54995-5 0  9995
2 54649  87.9187 286.0111 0001535  97.3560 262.7748 13.21828939143687
ONEWEB-0583             
1 54650U 22166J   25322.40394567  .00000161  00000+0  35841-3 0  9990
2 54650  87.9184 286.0487 0001819  87.7017 272.4325 13.21828874143684
ONEWEB-0584             
1 54651U 22166K   25322.42370324 -.00000014  00000+0 -66186-4 0  9994
2 54651  87.9186 286.0306 0001540  87.2454 272.8857 13.21827629143678
ONEWEB-0585             
1 54652U 22166L   25322.44839237  .00000019  00000+0  15435-4 0  9994
2 54652  87.9186 286.0104 0001948  79.9236 280.2118 13.21825334143688
ONEWEB-0586             
1 54653U 22166M   25322.46153608 -.00000403  00000+0 -10075-2 0  9990
2 54653  87.9186 286.0334 0001797  87.5739 272.5601 13.21826129143683
ONEWEB-0587             
1 54654U 22166N   25322.39571376 -.00000297  00000+0 -75160-3 0  9997
2 54654  87.9197 285.9999 0002205  75.3912 284.7466 13.21825674143839
ONEWEB-0589             
1 54655U 22166P   25322.38256282  .00000018  00000+0  11569-4 0  9996
2 54655  87.9183 286.0399 0001149 102.9762 257.1501 13.21825018143697
ONEWEB-0590             
1 54656U 22166Q   25322.40710595  .00000174  00000+0  38862-3 0  9999
2 54656  87.9184 286.0115 0001643  70.0421 290.0890 13.21828310143685
ONEWEB-0591             
1 54657U 22166R   25322.41877036  .00000043  00000+0  72272-4 0  9994
2 54657  87.9186 286.0329 0001752  82.3615 277.7718 13.21827989143713
ONEWEB-0592             
1 54658U 22166S   25322.42205304  .00000100  00000+0  21043-3 0  9992
2 54658  87.9190 285.9933 0001787  80.1611 279.9724 13.21828644143594
