[{"OBJECT_NAME":"ONEWEB-0527","OBJECT_ID":"2022-166A","EPOCH":"2025-11-18T10:21:57.960576","MEAN_MOTION":13.21825855,"ECCENTRICITY":0.0001915,"INCLINATION":87.9189,"RA_OF_ASC_NODE":286.0394,"ARG_OF_PERICENTER":82.1864,"MEAN_ANOMALY":277.9487,"EPHEMERIS_TYPE":0,"CLASSIFICATION_TYPE":"U","NORAD_CAT_ID":54642,"ELEMENT_SET_NO":999,"REV_AT_EPOCH":14369,"BSTAR":-0.00010821,"MEAN_MOTION_DOT":-3.2e-7,"MEAN_MOTION_DDOT":0},{"OBJECT_NAME":"ONEWEB-0528","OBJECT_ID":"2022-166B","EPOCH":"2025-11-18T10:31:28.427808","MEAN_MOTION":13.21826021,"ECCENTRICITY":0.000197,"INCLINATION":87.9189,"RA_OF_ASC_NODE":286.042,"ARG_OF_PERICENTER":83.1045,"MEAN_ANOMALY":277.0313,"EPHEMERIS_TYPE":0,"CLASSIFICATION_TYPE":"U","NORAD_CAT_ID":54643,"ELEMENT_SET_NO":999,"REV_AT_EPOCH":14370,"BSTAR":-6.3075e-5,"MEAN_MOTION_DOT":-1.3e-7,"MEAN_MOTION_DDOT":0},{"OBJECT_NAME":"ONEWEB-0539","OBJECT_ID":"2022-166C","EPOCH":"2025-11-18T09:36:56.623968","MEAN_MOTION":13.21828208,"ECCENTRICITY":0.0001862,"INCLINATION":87.9181,"RA_OF_ASC_NODE":286.0152,"ARG_OF_PERICENTER":90.0776,"MEAN_ANOMALY":270.0571,"EPHEMERIS_TYPE":0,"CLASSIFICATION_TYPE":"U","NORAD_CAT_ID":54644,"ELEMENT_SET_NO":999,"REV_AT_EPOCH":14369,"BSTAR":-2.1384e-5,"MEAN_MOTION_DOT":4.0e-8,"MEAN_MOTION_DDOT":0},{"OBJECT_NAME":"ONEWEB-0540","OBJECT_ID":"2022-166D","EPOCH":"2025-11-18T09:46:37.650144","MEAN_MOTION":13.21827979,"ECCENTRICITY":0.0001851,"INCLINATION":87.9185,"RA_OF_ASC_NODE":286.0523,"ARG_OF_PERICENTER":89.7719,"MEAN_ANOMALY":270.3627,"EPHEMERIS_TYPE":0,"CLASSIFICATION_TYPE":"U","NORAD_CAT_ID":54645,"ELEMENT_SET_NO":999,"REV_AT_EPOCH":14368,"BSTAR":0.00023406,"MEAN_MOTION_DOT":1.1e-6,"MEAN_MOTION_DDOT":0},{"OBJECT_NAME":"ONEWEB-0542","OBJECT_ID":"2022-166E","EPOCH":"2025-11-18T09:51:10.560960","MEAN_MOTION":13.21828549,"ECCENTRICITY":0.0001648,"INCLINATION":87.9184,"RA_OF_ASC_NODE":286.0105,"ARG_OF_PERICENTER":93.8919,"MEAN_ANOMALY":266.2404,"EPHEMERIS_TYPE":0,"CLASSIFICATION_TYPE":"U","NORAD_CAT_ID":54646,"ELEMENT_SET_NO":999,"REV_AT_EPOCH":14369,"BSTAR":0.00018826,"MEAN_MOTION_DOT":9.1e-7,"MEAN_MOTION_DDOT":0},{"OBJECT_NAME":"ONEWEB-0545","OBJECT_ID":"2022-166F","EPOCH":"2025-11-18T09:01:24.622752","MEAN_MOTION":13.21826968,"ECCENTRICITY":0.0001773,"INCLINATION":87.9185,"RA_OF_ASC_NODE":286.0376,"ARG_OF_PERICENTER":97.73,"MEAN_ANOMALY":262.4035,"EPHEMERIS_TYPE":0,"CLASSIFICATION_TYPE":"U","NORAD_CAT_ID":54647,"ELEMENT_SET_NO":999,"REV_AT_EPOCH":14365,"BSTAR":0.0001345,"MEAN_MOTION_DOT":6.9e-7,"MEAN_MOTION_DDOT":0},{"OBJECT_NAME":"ONEWEB-0580","OBJECT_ID":"2022-166G","EPOCH":"2025-11-18T10:12:28.558656","MEAN_MOTION":13.21828304,"ECCENTRICITY":0.0001594,"INCLINATION":87.9185,"RA_OF_ASC_NODE":286.0263,"ARG_OF_PERICENTER":90.84,"MEAN_ANOMALY":269.2916,"EPHEMERIS_TYPE":0,"CLASSIFICATION_TYPE":"U","NORAD_CAT_ID":54648,"ELEMENT_SET_NO":999,"REV_AT_EPOCH":14370,"BSTAR":0.00013023,"MEAN_MOTION_DOT":6.7e-7,"MEAN_MOTION_DDOT":0},{"OBJECT_NAME":"ONEWEB-0582","OBJECT_ID":"2022-166H","EPOCH":"2025-11-18T11:14:05.734752","MEAN_MOTION":13.21828939,"ECCENTRICITY":0.0001535,"INCLINATION":87.9187,"RA_OF_ASC_NODE":286.0111,"ARG_OF_PERICENTER":97.356,"MEAN_ANOMALY":262.7748,"EPHEMERIS_TYPE":0,"CLASSIFICATION_TYPE":"U","NORAD_CAT_ID":54649,"ELEMENT_SET_NO":999,"REV_AT_EPOCH":14368,"BSTAR":5.4995e-6,"MEAN_MOTION_DOT":1.5e-7,"MEAN_MOTION_DDOT":0},{"OBJECT_NAME":"ONEWEB-0583","OBJECT_ID":"2022-166J","EPOCH":"2025-11-18T09:41:40.905888","MEAN_MOTION":13.21828874,"ECCENTRICITY":0.0001819,"INCLINATION":87.9184,"RA_OF_ASC_NODE":286.0487,"ARG_OF_PERICENTER":87.7017,"MEAN_ANOMALY":272.4325,"EPHEMERIS_TYPE":0,"CLASSIFICATION_TYPE":"U","NORAD_CAT_ID":54650,"ELEMENT_SET_NO":999,"REV_AT_EPOCH":14368,"BSTAR":0.00035841,"MEAN_MOTION_DOT":1.61e-6,"MEAN_MOTION_DDOT":0},{"OBJECT_NAME":"ONEWEB-0584","OBJECT_ID":"2022-166K","EPOCH":"2025-11-18T10:10:07.959936","MEAN_MOTION":13.21827629,"ECCENTRICITY":0.000154,"INCLINATION":87.9186,"RA_OF_ASC_NODE":286.0306,"ARG_OF_PERICENTER":87.2454,"MEAN_ANOMALY":272.8857,"EPHEMERIS_TYPE":0,"CLASSIFICATION_TYPE":"U","NORAD_CAT_ID":54651,"ELEMENT_SET_NO":999,"REV_AT_EPOCH":14367,"BSTAR":-6.6186e-5,"MEAN_MOTION_DOT":-1.4e-7,"MEAN_MOTION_DDOT":0},{"OBJECT_NAME":"ONEWEB-0585","OBJECT_ID":"2022-166L","EPOCH":"2025-11-18T10:45:41.100768","MEAN_MOTION":13.21825334,"ECCENTRICITY":0.0001948,"INCLINATION":87.9186,"RA_OF_ASC_NODE":286.0104,"ARG_OF_PERICENTER":79.9236,"MEAN_ANOMALY":280.2118,"EPHEMERIS_TYPE":0,"CLASSIFICATION_TYPE":"U","NORAD_CAT_ID":54652,"ELEMENT_SET_NO":999,"REV_AT_EPOCH":14368,"BSTAR":1.5435e-5,"MEAN_MOTION_DOT":1.9e-7,"MEAN_MOTION_DDOT":0},{"OBJECT_NAME":"ONEWEB-0586","OBJECT_ID":"2022-166M","EPOCH":"2025-11-18T11:04:36.717312","MEAN_MOTION":13.21826129,"ECCENTRICITY":0.0001797,"INCLINATION":87.9186,"RA_OF_ASC_NODE":286.0334,"ARG_OF_PERICENTER":87.5739,"MEAN_ANOMALY":272.5601,"EPHEMERIS_TYPE":0,"CLASSIFICATION_TYPE":"U","NORAD_CAT_ID":54653,"ELEMENT_SET_NO":999,"REV_AT_EPOCH":14368,"BSTAR":-0.0010075,"MEAN_MOTION_DOT":-4.03e-6,"MEAN_MOTION_DDOT":0},{"OBJECT_NAME":"ONEWEB-0587","OBJECT_ID":"2022-166N","EPOCH":"2025-11-18T09:29:49.668864","MEAN_MOTION":13.21825674,"ECCENTRICITY":0.0002205,"INCLINATION":87.9197,"RA_OF_ASC_NODE":285.9999,"ARG_OF_PERICENTER":75.3912,"MEAN_ANOMALY":284.7466,"EPHEMERIS_TYPE":0,"CLASSIFICATION_TYPE":"U","NORAD_CAT_ID":54654,"ELEMENT_SET_NO":999,"REV_AT_EPOCH":14383,"BSTAR":-0.0007516,"MEAN_MOTION_DOT":-2.97e-6,"MEAN_MOTION_DDOT":0},{"OBJECT_NAME":"ONEWEB-0589","OBJECT_ID":"2022-166P","EPOCH":"2025-11-18T09:10:53.427648","MEAN_MOTION":13.21825018,"ECCENTRICITY":0.0001149,"INCLINATION":87.9183,"RA_OF_ASC_NODE":286.0399,"ARG_OF_PERICENTER":102.9762,"MEAN_ANOMALY":257.1501,"EPHEMERIS_TYPE":0,"CLASSIFICATION_TYPE":"U","NORAD_CAT_ID":54655,"ELEMENT_SET_NO":999,"REV_AT_EPOCH":14369,"BSTAR":1.1569e-5,"MEAN_MOTION_DOT":1.8e-7,"MEAN_MOTION_DDOT":0},{"OBJECT_NAME":"ONEWEB-0590","OBJECT_ID":"2022-166Q","EPOCH":"2025-11-18T09:46:13.954080","MEAN_MOTION":13.2182831,"ECCENTRICITY":0.0001643,"INCLINATION":87.9184,"RA_OF_ASC_NODE":286.0115,"ARG_OF_PERICENTER":70.0421,"MEAN_ANOMALY":290.089,"EPHEMERIS_TYPE":0,"CLASSIFICATION_TYPE":"U","NORAD_CAT_ID":54656,"ELEMENT_SET_NO":999,"REV_AT_EPOCH":14368,"BSTAR":0.00038862,"MEAN_MOTION_DOT":1.74e-6,"MEAN_MOTION_DDOT":0},{"OBJECT_NAME":"ONEWEB-0591","OBJECT_ID":"2022-166R","EPOCH":"2025-11-18T10:03:01.759104","MEAN_MOTION":13.21827989,"ECCENTRICITY":0.0001752,"INCLINATION":87.9186,"RA_OF_ASC_NODE":286.0329,"ARG_OF_PERICENTER":82.3615,"MEAN_ANOMALY":277.7718,"EPHEMERIS_TYPE":0,"CLASSIFICATION_TYPE":"U","NORAD_CAT_ID":54657,"ELEMENT_SET_NO":999,"REV_AT_EPOCH":14371,"BSTAR":7.2272e-5,"MEAN_MOTION_DOT":4.3e-7,"MEAN_MOTION_DDOT":0},{"OBJECT_NAME":"ONEWEB-0592","OBJECT_ID":"2022-166S","EPOCH":"2025-11-18T10:07:45.382656","MEAN_MOTION":13.21828644,"ECCENTRICITY":0.0001787,"INCLINATION":87.919,"RA_OF_ASC_NODE":285.9933,"ARG_OF_PERICENTER":80.1611,"MEAN_ANOMALY":279.9724,"EPHEMERIS_TYPE":0,"CLASSIFICATION_TYPE":"U","NORAD_CAT_ID":54658,"ELEMENT_SET_NO":999,"REV_AT_EPOCH":14359,"BSTAR":0.00021043,"MEAN_MOTION_DOT":1.0e-6,"MEAN_MOTION_DDOT":0}]
